[
    {
        "Altitude(m)": 715830.5506687851,
        "Argument of Periapsis(deg)": 0.0,
        "Eccentricity": 0.0,
        "Inclination(deg)": 45.0,
        "Latitude(deg)": -40.20052785961617,
        "Longitude(deg)": 7.8328332125343705,
        "Mean Anomaly(deg)": -65.45450000000001,
        "RAAN(deg)": 165.0,
        "Satellite Name": "Constellation 1 744",
        "Satellite Number": 744,
        "Semi-Major Axis(m)": 7083131.272910544,
        "Time(s)": 0
    },
    {
        "Altitude(m)": 715820.9034177604,
        "Argument of Periapsis(deg)": 5.994800624540561e-05,
        "Eccentricity": 0.0,
        "Inclination(deg)": 45.0,
        "Latitude(deg)": -40.177246378421586,
        "Longitude(deg)": 7.901772968425106,
        "Mean Anomaly(deg)": -65.39379885975006,
        "RAAN(deg)": 164.99994341083445,
        "Satellite Name": "Constellation 1 744",
        "Satellite Number": 744,
        "Semi-Major Axis(m)": 7083131.272910544,
        "Time(s)": 1
    },
    {
        "Altitude(m)": 715811.2373243208,
        "Argument of Periapsis(deg)": 0.00011989601249081122,
        "Eccentricity": 0.0,
        "Inclination(deg)": 45.0,
        "Latitude(deg)": -40.153918730507755,
        "Longitude(deg)": 7.970662893052582,
        "Mean Anomaly(deg)": -65.33309771950019,
        "RAAN(deg)": 164.99988682166884,
        "Satellite Name": "Constellation 1 744",
        "Satellite Number": 744,
        "Semi-Major Axis(m)": 7083131.272910544,
        "Time(s)": 2
    },
    {
        "Altitude(m)": 715801.552423731,
        "Argument of Periapsis(deg)": 0.00017984401873621686,
        "Eccentricity": 0.0,
        "Inclination(deg)": 45.0,
        "Latitude(deg)": -40.13054498445177,
        "Longitude(deg)": 8.039502963299777,
        "Mean Anomaly(deg)": -65.27239657925023,
        "RAAN(deg)": 164.99983023250329,
        "Satellite Name": "Constellation 1 744",
        "Satellite Number": 744,
        "Semi-Major Axis(m)": 7083131.272910544,
        "Time(s)": 3
    },
    {
        "Altitude(m)": 715791.8487513235,
        "Argument of Periapsis(deg)": 0.00023979202498162244,
        "Eccentricity": 0.0,
        "Inclination(deg)": 45.0,
        "Latitude(deg)": -40.107125208842454,
        "Longitude(deg)": 8.108293156506052,
        "Mean Anomaly(deg)": -65.21169543900037,
        "RAAN(deg)": 164.9997736433377,
        "Satellite Name": "Constellation 1 744",
        "Satellite Number": 744,
        "Semi-Major Axis(m)": 7083131.272910544,
        "Time(s)": 4
    },
    {
        "Altitude(m)": 715782.1263424933,
        "Argument of Periapsis(deg)": 0.00029974003122702807,
        "Eccentricity": 0.0,
        "Inclination(deg)": 45.0,
        "Latitude(deg)": -40.083659472279635,
        "Longitude(deg)": 8.177033450466546,
        "Mean Anomaly(deg)": -65.15099429875049,
        "RAAN(deg)": 164.99971705417215,
        "Satellite Name": "Constellation 1 744",
        "Satellite Number": 744,
        "Semi-Major Axis(m)": 7083131.272910544,
        "Time(s)": 5
    },
    {
        "Altitude(m)": 715772.3852327146,
        "Argument of Periapsis(deg)": 0.00035968803747243373,
        "Eccentricity": 0.0,
        "Inclination(deg)": 45.0,
        "Latitude(deg)": -40.06014784337357,
        "Longitude(deg)": 8.245723823430476,
        "Mean Anomaly(deg)": -65.09029315850066,
        "RAAN(deg)": 164.99966046500657,
        "Satellite Name": "Constellation 1 744",
        "Satellite Number": 744,
        "Semi-Major Axis(m)": 7083131.272910544,
        "Time(s)": 6
    },
    {
        "Altitude(m)": 715762.6254575105,
        "Argument of Periapsis(deg)": 0.00041963604371783933,
        "Eccentricity": 0.0,
        "Inclination(deg)": 45.0,
        "Latitude(deg)": -40.036590390744486,
        "Longitude(deg)": 8.314364086003176,
        "Mean Anomaly(deg)": -65.02959201825067,
        "RAAN(deg)": 164.999603875841,
        "Satellite Name": "Constellation 1 744",
        "Satellite Number": 744,
        "Semi-Major Axis(m)": 7083131.272910544,
        "Time(s)": 7
    },
    {
        "Altitude(m)": 715752.847052486,
        "Argument of Periapsis(deg)": 0.0004795840499632449,
        "Eccentricity": 0.0,
        "Inclination(deg)": 45.0,
        "Latitude(deg)": -40.012987183021025,
        "Longitude(deg)": 8.382954553532212,
        "Mean Anomaly(deg)": -64.96889087800083,
        "RAAN(deg)": 164.99954728667544,
        "Satellite Name": "Constellation 1 744",
        "Satellite Number": 744,
        "Semi-Major Axis(m)": 7083131.272910544,
        "Time(s)": 8
    },
    {
        "Altitude(m)": 715743.0500532956,
        "Argument of Periapsis(deg)": 0.0005395320562086505,
        "Eccentricity": 0.0,
        "Inclination(deg)": 45.0,
        "Latitude(deg)": -39.98933828884103,
        "Longitude(deg)": 8.451495037524905,
        "Mean Anomaly(deg)": -64.90818973775087,
        "RAAN(deg)": 164.99949069750988,
        "Satellite Name": "Constellation 1 744",
        "Satellite Number": 744,
        "Semi-Major Axis(m)": 7083131.272910544,
        "Time(s)": 9
    },
    {
        "Altitude(m)": 715733.2344956727,
        "Argument of Periapsis(deg)": 0.0005994800624540561,
        "Eccentricity": 0.0,
        "Inclination(deg)": 45.0,
        "Latitude(deg)": -39.965643776850136,
        "Longitude(deg)": 8.519985518034202,
        "Mean Anomaly(deg)": -64.847488597501,
        "RAAN(deg)": 164.9994341083443,
        "Satellite Name": "Constellation 1 744",
        "Satellite Number": 744,
        "Semi-Major Axis(m)": 7083131.272910544,
        "Time(s)": 10
    },
    {
        "Altitude(m)": 715723.400415411,
        "Argument of Periapsis(deg)": 0.0006594280686994618,
        "Eccentricity": 0.0,
        "Inclination(deg)": 45.0,
        "Latitude(deg)": -39.941903715701095,
        "Longitude(deg)": 8.588425975561156,
        "Mean Anomaly(deg)": -64.78678745725105,
        "RAAN(deg)": 164.99937751917872,
        "Satellite Name": "Constellation 1 744",
        "Satellite Number": 744,
        "Semi-Major Axis(m)": 7083131.272910544,
        "Time(s)": 11
    },
    {
        "Altitude(m)": 715713.547848366,
        "Argument of Periapsis(deg)": 0.0007193760749448675,
        "Eccentricity": 0.0,
        "Inclination(deg)": 45.0,
        "Latitude(deg)": -39.918118174053376,
        "Longitude(deg)": 8.656816391052857,
        "Mean Anomaly(deg)": -64.72608631700118,
        "RAAN(deg)": 164.99932093001314,
        "Satellite Name": "Constellation 1 744",
        "Satellite Number": 744,
        "Semi-Major Axis(m)": 7083131.272910544,
        "Time(s)": 12
    },
    {
        "Altitude(m)": 715703.6768304637,
        "Argument of Periapsis(deg)": 0.000779324081190273,
        "Eccentricity": 0.0,
        "Inclination(deg)": 45.0,
        "Latitude(deg)": -39.894287220572444,
        "Longitude(deg)": 8.725156745901755,
        "Mean Anomaly(deg)": -64.66538517675133,
        "RAAN(deg)": 164.9992643408476,
        "Satellite Name": "Constellation 1 744",
        "Satellite Number": 744,
        "Semi-Major Axis(m)": 7083131.272910544,
        "Time(s)": 13
    },
    {
        "Altitude(m)": 715693.7873976902,
        "Argument of Periapsis(deg)": 0.0008392720874356787,
        "Eccentricity": 0.0,
        "Inclination(deg)": 45.0,
        "Latitude(deg)": -39.87041092392916,
        "Longitude(deg)": 8.793447021944036,
        "Mean Anomaly(deg)": -64.60468403650147,
        "RAAN(deg)": 164.99920775168204,
        "Satellite Name": "Constellation 1 744",
        "Satellite Number": 744,
        "Semi-Major Axis(m)": 7083131.272910544,
        "Time(s)": 14
    },
    {
        "Altitude(m)": 715683.879586105,
        "Argument of Periapsis(deg)": 0.0008992200936810842,
        "Eccentricity": 0.0,
        "Inclination(deg)": 45.0,
        "Latitude(deg)": -39.84648935279947,
        "Longitude(deg)": 8.861687033361404,
        "Mean Anomaly(deg)": -64.54398289625149,
        "RAAN(deg)": 164.99915116251643,
        "Satellite Name": "Constellation 1 744",
        "Satellite Number": 744,
        "Semi-Major Axis(m)": 7083131.272910544,
        "Time(s)": 15
    },
    {
        "Altitude(m)": 715673.953431821,
        "Argument of Periapsis(deg)": 0.0009591680999264898,
        "Eccentricity": 0.0,
        "Inclination(deg)": 45.0,
        "Latitude(deg)": -39.822522575862656,
        "Longitude(deg)": 8.929877099067571,
        "Mean Anomaly(deg)": -64.48328175600155,
        "RAAN(deg)": 164.99909457335087,
        "Satellite Name": "Constellation 1 744",
        "Satellite Number": 744,
        "Semi-Major Axis(m)": 7083131.272910544,
        "Time(s)": 16
    },
    {
        "Altitude(m)": 715664.0089710212,
        "Argument of Periapsis(deg)": 0.0010191161061718953,
        "Eccentricity": 0.0,
        "Inclination(deg)": 45.0,
        "Latitude(deg)": -39.7985106618025,
        "Longitude(deg)": 8.998017034124965,
        "Mean Anomaly(deg)": -64.4225806157517,
        "RAAN(deg)": 164.99903798418532,
        "Satellite Name": "Constellation 1 744",
        "Satellite Number": 744,
        "Semi-Major Axis(m)": 7083131.272910544,
        "Time(s)": 17
    },
    {
        "Altitude(m)": 715654.0462399515,
        "Argument of Periapsis(deg)": 0.001079064112417301,
        "Eccentricity": 0.0,
        "Inclination(deg)": 45.0,
        "Latitude(deg)": -39.77445367930541,
        "Longitude(deg)": 9.066106822131792,
        "Mean Anomaly(deg)": -64.36187947550182,
        "RAAN(deg)": 164.99898139501974,
        "Satellite Name": "Constellation 1 744",
        "Satellite Number": 744,
        "Semi-Major Axis(m)": 7083131.272910544,
        "Time(s)": 18
    }
]